{"type": "FeatureCollection", "features": [ {"type": "Feature", "properties": {"norad_id": 39019, "name": "PLEIADES 1B", "group": "resource", "lat": 80.8296122702597, "lon": -48.26685677630299, "alt_km": 689.5848504942851, "timestamp": "2025-12-22T05:49:03.139160+00:00", "meta": {"OBJECT_NAME": "PLEIADES 1B", "OBJECT_ID": "2012-068A", "EPOCH": "2025-12-21T19:30:32.389632", "MEAN_MOTION": 14.58559952, "ECCENTRICITY": 0.0001168, "INCLINATION": 98.1791, "RA_OF_ASC_NODE": 68.3216, "ARG_OF_PERICENTER": 84.4868, "MEAN_ANOMALY": 275.6465, "EPHEMERIS_TYPE": 0, "CLASSIFICATION_TYPE": "U", "NORAD_CAT_ID": 39019, "ELEMENT_SET_NO": 999, "REV_AT_EPOCH": 69499, "BSTAR": 5.9559e-05, "MEAN_MOTION_DOT": 2.31e-06, "MEAN_MOTION_DDOT": 0}, "tle": {"line1": "1 39019U 12068A   25355.81287488  .00000231  00000+0  59559-4 0  9997", "line2": "2 39019  98.1791  68.3216 0001168  84.4868 275.6465 14.58559952694994"}}, "geometry": {"type": "Point", "coordinates": [-48.26685677630299, 80.8296122702597]}}, {"type": "Feature", "properties": {"norad_id": 39030, "name": "GOKTURK 2", "group": "resource", "lat": 18.712672850256222, "lon": 20.05093125359451, "alt_km": 643.9354042737341, "timestamp": "2025-12-22T05:49:03.139170+00:00", "meta": {"OBJECT_NAME": "GOKTURK 2", "OBJECT_ID": "2012-073A", "EPOCH": "2025-12-21T19:19:24.878784", "MEAN_MOTION": 14.75304009, "ECCENTRICITY": 0.000134, "INCLINATION": 97.6884, "RA_OF_ASC_NODE": 197.0127, "ARG_OF_PERICENTER": 107.9552, "MEAN_ANOMALY": 252.1804, "EPHEMERIS_TYPE": 0, "CLASSIFICATION_TYPE": "U", "NORAD_CAT_ID": 39030, "ELEMENT_SET_NO": 999, "REV_AT_EPOCH": 69835, "BSTAR": 0.00014809, "MEAN_MOTION_DOT": 9.56e-06, "MEAN_MOTION_DDOT": 0}, "tle": {"line1": "1 39030U 12073A   25355.80514906  .00000956  00000+0  14809-3 0  9995", "line2": "2 39030  97.6884 197.0127 0001340 107.9552 252.1804 14.75304009698359"}}, "geometry": {"type": "Point", "coordinates": [20.05093125359451, 18.712672850256222]}}, {"type": "Feature", "properties": {"norad_id": 39084, "name": "LANDSAT 8", "group": "resource", "lat": -34.57273622797739, "lon": -121.53236541988579, "alt_km": 709.1770506949924, "timestamp": "2025-12-22T05:49:03.139180+00:00", "meta": {"OBJECT_NAME": "LANDSAT 8", "OBJECT_ID": "2013-008A", "EPOCH": "2025-12-21T18:56:45.831840", "MEAN_MOTION": 14.5711113, "ECCENTRICITY": 0.0001072, "INCLINATION": 98.206, "RA_OF_ASC_NODE": 63.7288, "ARG_OF_PERICENTER": 91.4936, "MEAN_ANOMALY": 268.6385, "EPHEMERIS_TYPE": 0, "CLASSIFICATION_TYPE": "U", "NORAD_CAT_ID": 39084, "ELEMENT_SET_NO": 999, "REV_AT_EPOCH": 67206, "BSTAR": 8.602e-05, "MEAN_MOTION_DOT": 3.42e-06, "MEAN_MOTION_DDOT": 0}, "tle": {"line1": "1 39084U 13008A   25355.78941935  .00000342  00000+0  86020-4 0  9990", "line2": "2 39084  98.2060  63.7288 0001072  91.4936 268.6385 14.57111130672060"}}, "geometry": {"type": "Point", "coordinates": [-121.53236541988579, -34.57273622797739]}}, {"type": "Feature", "properties": {"norad_id": 39086, "name": "SARAL", "group": "resource", "lat": 81.36079423572492, "lon": 98.08466062620968, "alt_km": 772.9389520267814, "timestamp": "2025-12-22T05:49:03.139191+00:00", "meta": {"OBJECT_NAME": "SARAL", "OBJECT_ID": "2013-009A", "EPOCH": "2025-12-21T17:40:20.933760", "MEAN_MOTION": 14.32759952, "ECCENTRICITY": 0.0002961, "INCLINATION": 98.5502, "RA_OF_ASC_NODE": 179.5493, "ARG_OF_PERICENTER": 91.7625, "MEAN_ANOMALY": 268.3898, "EPHEMERIS_TYPE": 0, "CLASSIFICATION_TYPE": "U", "NORAD_CAT_ID": 39086, "ELEMENT_SET_NO": 999, "REV_AT_EPOCH": 67019, "BSTAR": 5.2535e-05, "MEAN_MOTION_DOT": 9.9e-07, "MEAN_MOTION_DDOT": 0}, "tle": {"line1": "1 39086U 13009A   25355.73635340  .00000099  00000+0  52535-4 0  9991", "line2": "2 39086  98.5502 179.5493 0002961  91.7625 268.3898 14.32759952670197"}}, "geometry": {"type": "Point", "coordinates": [98.08466062620968, 81.36079423572492]}}, {"type": "Feature", "properties": {"norad_id": 39150, "name": "GAOFEN-1", "group": "resource", "lat": -76.38192051064796, "lon": 101.87053192001048, "alt_km": 660.3541127642875, "timestamp": "2025-12-22T05:49:03.139201+00:00", "meta": {"OBJECT_NAME": "GAOFEN-1", "OBJECT_ID": "2013-018A", "EPOCH": "2025-12-21T20:25:00.327072", "MEAN_MOTION": 14.76494391, "ECCENTRICITY": 0.0018432, "INCLINATION": 97.9322, "RA_OF_ASC_NODE": 66.349, "ARG_OF_PERICENTER": 115.2673, "MEAN_ANOMALY": 245.045, "EPHEMERIS_TYPE": 0, "CLASSIFICATION_TYPE": "U", "NORAD_CAT_ID": 39150, "ELEMENT_SET_NO": 999, "REV_AT_EPOCH": 68207, "BSTAR": 8.3447e-05, "MEAN_MOTION_DOT": 5.32e-06, "MEAN_MOTION_DDOT": 0}, "tle": {"line1": "1 39150U 13018A   25355.85069823  .00000532  00000+0  83447-4 0  9991", "line2": "2 39150  97.9322  66.3490 0018432 115.2673 245.0450 14.76494391682074"}}, "geometry": {"type": "Point", "coordinates": [101.87053192001048, -76.38192051064796]}}, {"type": "Feature", "properties": {"norad_id": 39160, "name": "VNREDSAT 1", "group": "resource", "lat": -51.85616712288479, "lon": 61.4162276665611, "alt_km": 684.8213805064952, "timestamp": "2025-12-22T05:49:03.139211+00:00", "meta": {"OBJECT_NAME": "VNREDSAT 1", "OBJECT_ID": "2013-021B", "EPOCH": "2025-12-21T20:13:17.105376", "MEAN_MOTION": 14.64933973, "ECCENTRICITY": 0.0001213, "INCLINATION": 97.9365, "RA_OF_ASC_NODE": 50.7984, "ARG_OF_PERICENTER": 81.0668, "MEAN_ANOMALY": 279.0673, "EPHEMERIS_TYPE": 0, "CLASSIFICATION_TYPE": "U", "NORAD_CAT_ID": 39160, "ELEMENT_SET_NO": 999, "REV_AT_EPOCH": 67432, "BSTAR": 4.1158e-05, "MEAN_MOTION_DOT": 1.75e-06, "MEAN_MOTION_DDOT": 0}, "tle": {"line1": "1 39160U 13021B   25355.84255909  .00000175  00000+0  41158-4 0  9993", "line2": "2 39160  97.9365  50.7984 0001213  81.0668 279.0673 14.64933973674324"}}, "geometry": {"type": "Point", "coordinates": [61.4162276665611, -51.85616712288479]}}, {"type": "Feature", "properties": {"norad_id": 39227, "name": "ARIRANG-5 (KOMPSAT-5)", "group": "resource", "lat": -60.86937542160892, "lon": -165.69816661455872, "alt_km": 560.3004080100445, "timestamp": "2025-12-22T05:49:03.139222+00:00", "meta": {"OBJECT_NAME": "ARIRANG-5 (KOMPSAT-5)", "OBJECT_ID": "2013-042A", "EPOCH": "2025-12-21T20:30:53.018784", "MEAN_MOTION": 15.04544172, "ECCENTRICITY": 0.0003419, "INCLINATION": 97.6156, "RA_OF_ASC_NODE": 180.0283, "ARG_OF_PERICENTER": 34.9057, "MEAN_ANOMALY": 325.2393, "EPHEMERIS_TYPE": 0, "CLASSIFICATION_TYPE": "U", "NORAD_CAT_ID": 39227, "ELEMENT_SET_NO": 999, "REV_AT_EPOCH": 67719, "BSTAR": 0.00014516, "MEAN_MOTION_DOT": 1.974e-05, "MEAN_MOTION_DDOT": 0}, "tle": {"line1": "1 39227U 13042A   25355.85478031  .00001974  00000+0  14516-3 0  9999", "line2": "2 39227  97.6156 180.0283 0003419  34.9057 325.2393 15.04544172677196"}}, "geometry": {"type": "Point", "coordinates": [-165.69816661455872, -60.86937542160892]}}, {"type": "Feature", "properties": {"norad_id": 39418, "name": "SKYSAT-A", "group": "resource", "lat": -14.089890446090804, "lon": -135.70963130529375, "alt_km": 521.217424625911, "timestamp": "2025-12-22T05:49:03.139232+00:00", "meta": {"OBJECT_NAME": "SKYSAT-A", "OBJECT_ID": "2013-066C", "EPOCH": "2025-12-21T16:15:06.132384", "MEAN_MOTION": 15.11664021, "ECCENTRICITY": 0.0021355, "INCLINATION": 97.4093, "RA_OF_ASC_NODE": 45.6141, "ARG_OF_PERICENTER": 204.1916, "MEAN_ANOMALY": 155.8313, "EPHEMERIS_TYPE": 0, "CLASSIFICATION_TYPE": "U", "NORAD_CAT_ID": 39418, "ELEMENT_SET_NO": 999, "REV_AT_EPOCH": 66165, "BSTAR": 0.00017527, "MEAN_MOTION_DOT": 2.933e-05, "MEAN_MOTION_DDOT": 0}, "tle": {"line1": "1 39418U 13066C   25355.67715431  .00002933  00000+0  17527-3 0  9996", "line2": "2 39418  97.4093  45.6141 0021355 204.1916 155.8313 15.11664021661656"}}, "geometry": {"type": "Point", "coordinates": [-135.70963130529375, -14.089890446090804]}}, {"type": "Feature", "properties": {"norad_id": 39419, "name": "DUBAISAT-2", "group": "resource", "lat": -45.20497513620672, "lon": 158.78886912263965, "alt_km": 544.1770159399803, "timestamp": "2025-12-22T05:49:03.139242+00:00", "meta": {"OBJECT_NAME": "DUBAISAT-2", "OBJECT_ID": "2013-066D", "EPOCH": "2025-12-21T20:51:32.903712", "MEAN_MOTION": 15.08432627, "ECCENTRICITY": 0.0010039, "INCLINATION": 97.4444, "RA_OF_ASC_NODE": 345.9946, "ARG_OF_PERICENTER": 285.8466, "MEAN_ANOMALY": 74.1656, "EPHEMERIS_TYPE": 0, "CLASSIFICATION_TYPE": "U", "NORAD_CAT_ID": 39419, "ELEMENT_SET_NO": 999, "REV_AT_EPOCH": 65964, "BSTAR": 0.00024125, "MEAN_MOTION_DOT": 3.698e-05, "MEAN_MOTION_DDOT": 0}, "tle": {"line1": "1 39419U 13066D   25355.86913083  .00003698  00000+0  24125-3 0  9992", "line2": "2 39419  97.4444 345.9946 0010039 285.8466  74.1656 15.08432627659649"}}, "geometry": {"type": "Point", "coordinates": [158.78886912263965, -45.20497513620672]}}, {"type": "Feature", "properties": {"norad_id": 39574, "name": "GPM-CORE", "group": "resource", "lat": -5.6188937786554165, "lon": 3.494689894093513, "alt_km": 432.4149480100432, "timestamp": "2025-12-22T05:49:03.139253+00:00", "meta": {"OBJECT_NAME": "GPM-CORE", "OBJECT_ID": "2014-009C", "EPOCH": "2025-12-21T19:41:25.495008", "MEAN_MOTION": 15.44593534, "ECCENTRICITY": 0.0009285, "INCLINATION": 64.9719, "RA_OF_ASC_NODE": 182.2725, "ARG_OF_PERICENTER": 248.8732, "MEAN_ANOMALY": 111.1416, "EPHEMERIS_TYPE": 0, "CLASSIFICATION_TYPE": "U", "NORAD_CAT_ID": 39574, "ELEMENT_SET_NO": 999, "REV_AT_EPOCH": 67041, "BSTAR": 0.00014619, "MEAN_MOTION_DOT": 6.594e-05, "MEAN_MOTION_DDOT": 0}, "tle": {"line1": "1 39574U 14009C   25355.82043397  .00006594  00000+0  14619-3 0  9995", "line2": "2 39574  64.9719 182.2725 0009285 248.8732 111.1416 15.44593534670417"}}, "geometry": {"type": "Point", "coordinates": [3.494689894093513, -5.6188937786554165]}}]}